[{"OBJECT_NAME":"CELESTIS-02 & TAURUS R/B","OBJECT_ID":"1998-007D","EPOCH":"2026-03-03T01:29:07.484352","MEAN_MOTION":14.22451052,"ECCENTRICITY":0.006314,"INCLINATION":108.009,"RA_OF_ASC_NODE":118.0772,"ARG_OF_PERICENTER":313.1232,"MEAN_ANOMALY":110.1452,"EPHEMERIS_TYPE":0,"CLASSIFICATION_TYPE":"U","NORAD_CAT_ID":25160,"ELEMENT_SET_NO":999,"REV_AT_EPOCH":45542,"BSTAR":6.7109e-5,"MEAN_MOTION_DOT":2.3e-7,"MEAN_MOTION_DDOT":0}]
